C/2022 A3 (Lemmon-ATLAS),e,88.3619,325.4489,234.8964,975.8221,0.0000323,0.99620299,0.0000,09/29.1425/2023,2000,g  8.0,4.0
# From MPEC 2026-E44
P/2022 BV9 (Lemmon),e,11.9213,337.3019,16.2529,4.367257,0.1079918,0.23319441,215.7186,04/10.0/2026,2000,g  9.5,4.0
# From MPEC 2026-E44
P/2022 C1 (PANSTARRS),e,4.7635,113.0946,9.5348,7.238905,0.0506052,0.44920700,81.7732,04/10.0/2026,2000,g 12.0,4.0
# From MPEC 2026-E44
P/2022 C2 (PANSTARRS),e,9.9814,135.2465,89.1314,6.032566,0.0665198,0.44239211,89.3079,04/10.0/2026,2000,g 12.5,4.0
# From MPEC 2026-E44
P/2022 C3 (PANSTARRS),e,12.8244,139.0396,93.7846,9.615931,0.0330535,0.54568071,45.6025,04/10.0/2026,2000,g 11.5,4.0
# From MPEC 2026-E44
P/2022 D1 (PANSTARRS),e,44.0527,47.9284,88.6945,7.407802,0.0488844,0.54818533,82.3553,04/10.0/2026,2000,g 12.5,4.0
# From MPEC 2022-L66
P/2022 E1 (Christensen),e,19.0072,113.3398,114.8167,3.777564,0.1342414,0.22061860,188.1329,04/10.0/2026,2000,g 13.5,4.0
# From MPEC 2026-FC3
C/2022 E2 (ATLAS),h,09/14.2905/2024,137.1411,125.3959,41.7804,1.000641,3.667640,2000,5.0,4.0
# From MPEC 2026-E44
C/2022 E3 (ZTF),h,01/12.3262/2023,109.1815,302.4869,145.8654,1.000031,1.116507,2000,7.5,4.0
# From MPEC 2026-E44
C/2022 F1 (ATLAS),e,57.9815,350.6365,278.4003,84012,0.0000000,0.99992881,0.0000,08/06.3158/2022,2000,g  7.0,4.0
# From MPEC 2026-E44
C/2022 H1 (PANSTARRS),e,49.8646,6.3063,246.2897,860.8935,0.0000390,0.99106934,0.0000,01/18.4673/2024,2000,g  6.0,4.0
# From MPEC 2026-E44
C/2022 JK5 (PANSTARRS),e,16.8269,59.6525,247.3597,43.48071,0.0034376,0.93800158,3.7040,04/10.0/2026,2000,g 11.0,4.0
# From MPEC 2026-E44
C/2022 L2 (ATLAS),h,03/11.9522/2024,129.3094,39.2535,199.9257,1.000327,2.694263,2000,6.5,4.0
# From MPEC 2026-G41
C/2022 N2 (PANSTARRS),h,08/01.0338/2025,5.5031,319.7317,75.4450,1.003854,3.826006,2000,6.0,4.0
# From MPEC 2026-E44
C/2022 O1 (ATLAS),h,02/14.7525/2022,71.0701,49.9037,268.9302,1.000412,7.435255,2000,6.0,4.0
# From MPEC 2026-FC5
P/2022 P2 (ZTF),e,12.4417,291.1671,137.8138,4.493372,0.1034774,0.55768052,141.6710,04/10.0/2026,2000,g 12.5,4.0
# From MPEC 2026-G41
C/2022 QE78 (ATLAS),e,36.6582,119.8918,0.6577,1891,0.0000120,0.99710372,0.0000,09/12.2128/2025,2000,g  5.0,4.0
# From MPEC 2026-E44
P/2022 R1 (PANSTARRS),e,7.3899,175.5847,221.6199,7.118411,0.0518955,0.49977795,47.7653,04/10.0/2026,2000,g 11.5,4.0
# From MPEC 2026-E44
C/2022 R3 (Leonard),h,03/05.9648/2023,43.0597,8.2684,72.9597,1.001469,5.134651,2000,9.0,4.0
# From MPEC 2026-E44
P/2022 R5 (PANSTARRS),e,15.2924,115.0392,240.4762,3.070827,0.1831560,0.19449006,259.2628,04/10.0/2026,2000,g 16.0,4.0
# From MPEC 2026-G41
C/2022 R6 (PANSTARRS),h,08/27.0334/2025,57.0310,150.7773,319.9897,1.005047,6.566100,2000,5.0,4.0
# From MPEC 2026-E44
P/2022 S1 (PANSTARRS),e,34.5621,136.0848,262.8579,6.408193,0.0607576,0.50722707,80.8408,04/10.0/2026,2000,g 13.0,4.0
# From MPEC 2026-E44
C/2022 S4 (Lemmon),e,101.1997,220.1791,268.5575,1436,0.0000181,0.99807632,0.0000,07/18.7935/2024,2000,g  8.0,4.0
# From MPEC 2026-E44
C/2022 T1 (Lemmon),h,02/17.5347/2024,22.5382,236.9028,324.2974,1.000638,3.443491,2000,9.0,4.0
# From MPEC 2026-E44
C/2022 U1 (Leonard),h,03/26.2183/2024,128.1413,72.5325,78.6180,1.000659,4.201872,2000,8.5,4.0
# From MPEC 2026-E44
C/2022 U3 (Bok),e,33.6612,272.7865,189.1556,11534,0.0000008,0.99958139,0.0000,07/28.6884/2024,2000,g  7.5,4.0
# From MPEC 2026-E44
C/2022 U4 (Bok),e,52.0601,132.9184,88.9652,3148,0.0000056,0.99908003,0.0000,08/03.7507/2023,2000,g 10.5,4.0
# From MPEC 2026-E44
C/2022 V2 (Lemmon),e,98.9089,332.8324,168.9772,36.66349,0.0044397,0.94365899,3.9523,04/10.0/2026,2000,g 12.0,4.0
# From MPEC 2026-E44
P/2022 W1 (Rankin),e,13.4610,38.8420,17.9657,6.977652,0.0534737,0.51616335,69.6298,04/10.0/2026,2000,g 12.5,4.0
# From MPEC 2026-E44
C/2022 W2 (ATLAS),e,63.4912,320.4218,123.3521,340.8048,0.0001567,0.99082383,0.0000,03/08.5924/2023,2000,g 11.5,4.0
# From MPEC 2026-E43
C/2023 A3 (Tsuchinshan-ATLAS),h,09/27.7796/2024,139.1059,21.6303,308.5559,1.000166,0.391549,2000,6.5,3.2
# From MPEC 2026-E44
P/2023 B1 (PANSTARRS),e,14.5868,78.5644,81.9280,7.071275,0.0524152,0.13141841,56.0207,04/10.0/2026,2000,g  5.5,4.0
# From MPEC 2026-E44
P/2023 B3 (PANSTARRS),e,9.1557,153.9708,240.3954,4.552337,0.1014735,0.12187306,207.3300,04/10.0/2026,2000,g 10.5,4.0
# From MPEC 2026-FC3
C/2023 C2 (ATLAS),e,48.3224,301.0064,357.4222,1719,0.0000138,0.99862276,0.0000,11/16.6895/2024,2000,g  7.0,4.0
# From MPEC 2026-G41
C/2023 F3 (ATLAS),h,02/02.7169/2025,145.9628,109.4682,265.5526,1.002847,5.191455,2000,6.0,4.0
# From MPC191587
C/2023 H1 (PANSTARRS),e,21.7830,292.6464,333.7270,742.7857,0.0000487,0.99401337,0.0000,11/28.4922/2024,2000,g  8.5,4.0
# From MPEC 2026-E44
C/2023 H3 (PANSTARRS),e,2.4883,55.0783,193.2356,13.61582,0.0196173,0.61588201,15.3406,04/10.0/2026,2000,g 10.0,4.0
# From MPEC 2026-FR0
C/2023 H5 (Lemmon),h,06/30.4165/2025,97.8547,159.4730,60.1205,1.000552,4.312856,2000,7.0,4.0
# From MPEC 2026-E44
P/2023 JN16 (Lemmon),e,3.7018,11.7837,353.5150,2.697948,0.2224097,0.14773342,103.2522,04/10.0/2026,2000,g 14.0,4.0
# From MPEC 2026-E44
P/2023 M1 (PANSTARRS),e,12.2918,216.8647,79.6928,6.838546,0.0551136,0.58665403,46.7304,04/10.0/2026,2000,g 13.5,4.0
# From MPEC 2026-E44
P/2023 M2 (PANSTARRS),e,19.7137,83.2574,243.7458,5.588583,0.0746022,0.36915681,73.6325,04/10.0/2026,2000,g 12.5,4.0
# From MPEC 2026-E44
P/2023 M4 (ATLAS),e,7.5920,296.2710,320.3856,5.442551,0.0776248,0.27912533,113.1888,04/10.0/2026,2000,g  7.5,4.0
# From MPEC 2026-E44
C/2023 P1 (Nishimura),e,132.4834,66.7846,116.1902,55.93075,0.0023563,0.99599836,0.0000,09/17.5097/2023,2000,g 10.0,4.0
# From MPEC 2026-E44
C/2023 Q1 (PANSTARRS),h,12/01.0928/2024,36.6432,7.1242,84.4265,1.004757,2.576337,2000,10.0,4.0
# From MPEC 2026-E44
C/2023 Q2 (PANSTARRS),e,104.0616,92.6776,171.6552,329.6063,0.0001647,0.99026745,0.0000,06/23.7951/2024,2000,g 11.5,4.0
# From MPEC 2026-G41
C/2023 R1 (PANSTARRS),h,04/13.3876/2026,149.3151,62.5692,144.2614,1.002389,3.570071,2000,6.0,4.0
# From MPEC 2026-E44
C/2023 R2 (PANSTARRS),h,08/12.2233/2024,30.6963,188.8623,337.3413,1.000373,0.904827,2000,10.5,4.0
# From MPEC 2026-E44
C/2023 RN3 (ATLAS),e,10.3515,207.0646,130.6255,10.15973,0.0304355,0.48983991,35.7901,04/10.0/2026,2000,g  7.5,4.0
# From MPEC 2026-EC7
C/2023 RS61 (PANSTARRS),e,19.9467,347.0343,119.5315,11.89510,0.0240244,0.32797382,336.7313,04/10.0/2026,2000,g  6.8,4.0
# From MPEC 2026-E44
P/2023 S1 (PANSTARRS),e,9.1575,317.2863,180.3578,3.844890,0.1307309,0.31852392,53.5547,04/10.0/2026,2000,g 11.5,4.0
# From MPEC 2026-E44
P/2023 T1 (PANSTARRS),e,6.6121,249.5792,202.9121,4.226761,0.1134208,0.33309157,77.9252,04/10.0/2026,2000,g 14.0,4.0
# From MPEC 2026-E44
C/2023 T3 (Fuls),e,27.2180,246.0020,302.8562,976.8101,0.0000323,0.99636740,0.0000,01/25.4385/2025,2000,g  8.5,4.0
# From MPEC 2026-E44
C/2023 TD22 (Lemmon),e,170.4881,5.5791,32.5330,48.32847,0.0029336,0.95125600,1.6742,04/10.0/2026,2000,g 12.5,4.0
# From MPC191587
C/2023 U1 (Fuls),e,108.1481,305.7996,255.6689,4065,0.0000038,0.99877631,0.0000,10/13.1843/2024,2000,g  8.0,4.0
# From MPEC 2026-FR0
C/2023 V1 (Lemmon),h,07/13.0704/2025,102.0084,15.0527,103.3211,1.000370,5.092641,2000,8.5,4.0
# From MPEC 2026-FC5
P/2023 V2 (PANSTARRS),e,9.8883,95.4728,330.5147,7.215481,0.0508518,0.56968512,40.5065,04/10.0/2026,2000,g 13.5,4.0
# From MPEC 2026-E44
C/2023 V3 (PANSTARRS),e,40.6301,91.2673,291.8109,12.69528,0.0217892,0.64575984,21.4204,04/10.0/2026,2000,g 11.5,4.0
# From MPEC 2026-E44
C/2023 V4 (Camarasa-Duszanowicz),h,05/30.4524/2024,67.1061,66.3263,50.8837,1.001299,1.122127,2000,12.0,4.0
# From MPEC 2026-E44
P/2023 V6 (PANSTARRS),e,3.9820,189.4073,191.4757,5.274620,0.0813612,0.17536155,100.5238,04/10.0/2026,2000,g 11.5,4.0
# From MPEC 2026-E44
C/2023 X1 (Leonard),e,110.5941,136.9639,321.4883,155.4096,0.0005087,0.99387077,0.0000,10/17.8169/2023,2000,g 13.5,3.2
# From MPEC 2026-FR0
C/2023 X2 (Lemmon),h,12/28.4851/2025,76.9807,66.3016,64.8028,1.000087,5.088595,2000,8.5,3.2
# From MPEC 2026-E44
P/2023 X3 (PANSTARRS),e,4.4829,62.0182,40.9390,4.247344,0.1125973,0.28611161,80.7995,04/10.0/2026,2000,g 15.5,4.0
# From MPEC 2026-E44
C/2023 X4 (Hogan),e,11.5906,28.7703,100.6387,9.932216,0.0314873,0.63153219,21.5590,04/10.0/2026,2000,g 12.0,4.0
# From MPEC 2026-E44
C/2023 X7 (PANSTARRS),e,69.1275,119.2056,354.3888,4801,0.0000030,0.99899603,0.0000,05/14.9820/2025,2000,g  9.0,4.0
# From MPEC 2026-E44
P/2023 Y2 (Gibbs),e,6.9917,79.2310,16.9495,3.748530,0.1358040,0.39212587,132.2459,04/10.0/2026,2000,g 15.5,4.0
# From MPEC 2026-G41
C/2024 A1 (ATLAS),e,94.5053,112.1401,353.1973,24950,0.0000003,0.99984472,0.0000,06/12.9788/2025,2000,g  7.0,4.0
# From MPEC 2026-E44
C/2024 A2 (ATLAS),e,119.1174,78.1700,295.5008,32.14010,0.0054092,0.94149950,3.8478,04/10.0/2026,2000,g 12.5,4.0
# From MPEC 2026-E44
C/2024 B1 (Lemmon),h,10/07.7809/2024,70.8947,79.1884,66.2280,1.001228,1.633885,2000,13.0,4.0
# From MPEC 2026-E44
C/2024 B2 (Lemmon),e,99.8729,294.3879,130.3175,1216,0.0000232,0.99664525,0.0000,10/05.3067/2023,2000,g 11.5,4.0
# From MPEC 2026-E44
C/2024 C1 (PANSTARRS),e,14.2259,83.8116,94.5157,10.59686,0.0285719,0.58353692,16.7615,04/10.0/2026,2000,g 11.5,4.0
# From MPEC 2026-E44
C/2024 C2 (PANSTARRS),e,27.2837,66.4550,87.6373,16.25149,0.0150440,0.44669600,5.9135,04/10.0/2026,2000,g  6.0,4.0
# From MPEC 2026-E44
C/2024 C3 (PANSTARRS),e,22.4478,359.6970,159.7679,11.68275,0.0246824,0.42527982,21.7722,04/10.0/2026,2000,g  9.0,4.0
# From MPEC 2026-E43
C/2024 D1 (Lemmon),e,132.4479,179.6531,125.8009,23445,0.0000003,0.99971459,0.0000,12/03.6207/2027,2000,g  7.3,4.0
# From MPEC 2026-G41
C/2024 E1 (Wierzchos),h,01/20.7708/2026,75.2397,108.0799,243.6245,1.000219,0.566142,2000,7.0,4.0
# From MPEC 2026-E44
C/2024 E2 (Bok),e,155.6527,135.6597,358.2091,51.11152,0.0026973,0.84936734,2.4201,04/10.0/2026,2000,g  8.0,4.0
# From MPEC 2026-E44
P/2024 F1 (PANSTARRS),e,7.0068,251.5166,229.5995,3.446365,0.1540502,0.46023228,138.2054,04/10.0/2026,2000,g 16.0,4.0
# From MPEC 2026-FR0
